{"type": "FeatureCollection", "features": [ {"type": "Feature", "properties": {"norad_id": 30741, "name": "FENGYUN 1C DEB", "group": "fengyun-1c-debris", "lat": -28.434831321516306, "lon": -0.49489181258869336, "alt_km": 858.420570965719, "timestamp": "2025-12-11T10:53:16.165591+00:00", "meta": {"OBJECT_NAME": "FENGYUN 1C DEB", "OBJECT_ID": "1999-025ATB", "EPOCH": "2025-12-10T11:57:38.621952", "MEAN_MOTION": 14.13232372, "ECCENTRICITY": 0.00070006, "INCLINATION": 98.6799, "RA_OF_ASC_NODE": 353.8339, "ARG_OF_PERICENTER": 122.5166, "MEAN_ANOMALY": 31.3629, "EPHEMERIS_TYPE": 0, "CLASSIFICATION_TYPE": "U", "NORAD_CAT_ID": 30741, "ELEMENT_SET_NO": 999, "REV_AT_EPOCH": 96787, "BSTAR": 0.00022980472, "MEAN_MOTION_DOT": 3.88e-06, "MEAN_MOTION_DDOT": 0}, "tle": {"line1": "1 30741U 99025ATB 25344.49836368  .00000388  00000+0  22980-3 0  9997", "line2": "2 30741  98.6799 353.8339 0007000 122.5166  31.3629 14.13232372967878"}}, "geometry": {"type": "Point", "coordinates": [-0.49489181258869336, -28.434831321516306]}}, {"type": "Feature", "properties": {"norad_id": 30742, "name": "FENGYUN 1C DEB", "group": "fengyun-1c-debris", "lat": -16.032030879215537, "lon": 32.47403268726323, "alt_km": 883.0887968136913, "timestamp": "2025-12-11T10:53:16.165601+00:00", "meta": {"OBJECT_NAME": "FENGYUN 1C DEB", "OBJECT_ID": "1999-025ATC", "EPOCH": "2025-12-11T02:34:50.788128", "MEAN_MOTION": 14.10355526, "ECCENTRICITY": 0.0070969, "INCLINATION": 98.8679, "RA_OF_ASC_NODE": 29.5615, "ARG_OF_PERICENTER": 231.3143, "MEAN_ANOMALY": 155.4136, "EPHEMERIS_TYPE": 0, "CLASSIFICATION_TYPE": "U", "NORAD_CAT_ID": 30742, "ELEMENT_SET_NO": 999, "REV_AT_EPOCH": 96019, "BSTAR": 0.0020965, "MEAN_MOTION_DOT": 3.768e-05, "MEAN_MOTION_DDOT": 0}, "tle": {"line1": "1 30742U 99025ATC 25345.10753227  .00003768  00000+0  20965-2 0  9994", "line2": "2 30742  98.8679  29.5615 0070969 231.3143 155.4136 14.10355526960193"}}, "geometry": {"type": "Point", "coordinates": [32.47403268726323, -16.032030879215537]}}, {"type": "Feature", "properties": {"norad_id": 30744, "name": "FENGYUN 1C DEB", "group": "fengyun-1c-debris", "lat": 72.51230412730928, "lon": -19.371731386778922, "alt_km": 600.0815564746736, "timestamp": "2025-12-11T10:53:16.165612+00:00", "meta": {"OBJECT_NAME": "FENGYUN 1C DEB", "OBJECT_ID": "1999-025ATE", "EPOCH": "2025-12-10T22:13:42.826368", "MEAN_MOTION": 14.89233566, "ECCENTRICITY": 0.0010077, "INCLINATION": 98.7317, "RA_OF_ASC_NODE": 130.8498, "ARG_OF_PERICENTER": 279.7005, "MEAN_ANOMALY": 239.2308, "EPHEMERIS_TYPE": 0, "CLASSIFICATION_TYPE": "U", "NORAD_CAT_ID": 30744, "ELEMENT_SET_NO": 999, "REV_AT_EPOCH": 98061, "BSTAR": 0.0073503, "MEAN_MOTION_DOT": 0.00070231, "MEAN_MOTION_DDOT": 0}, "tle": {"line1": "1 30744U 99025ATE 25344.92619012  .00070231  00000+0  73503-2 0  9993", "line2": "2 30744  98.7317 130.8498 0010077 279.7005 239.2308 14.89233566980611"}}, "geometry": {"type": "Point", "coordinates": [-19.371731386778922, 72.51230412730928]}}, {"type": "Feature", "properties": {"norad_id": 30746, "name": "FENGYUN 1C DEB", "group": "fengyun-1c-debris", "lat": -57.81575631438291, "lon": -28.682323873112566, "alt_km": 802.9822066915622, "timestamp": "2025-12-11T10:53:16.165623+00:00", "meta": {"OBJECT_NAME": "FENGYUN 1C DEB", "OBJECT_ID": "1999-025ATG", "EPOCH": "2025-12-11T00:25:04.592928", "MEAN_MOTION": 14.27508742, "ECCENTRICITY": 0.0046244, "INCLINATION": 99.0574, "RA_OF_ASC_NODE": 165.5481, "ARG_OF_PERICENTER": 323.2829, "MEAN_ANOMALY": 195.5434, "EPHEMERIS_TYPE": 0, "CLASSIFICATION_TYPE": "U", "NORAD_CAT_ID": 30746, "ELEMENT_SET_NO": 999, "REV_AT_EPOCH": 97421, "BSTAR": 0.00066205, "MEAN_MOTION_DOT": 1.598e-05, "MEAN_MOTION_DDOT": 0}, "tle": {"line1": "1 30746U 99025ATG 25345.01741427  .00001598  00000+0  66205-3 0  9994", "line2": "2 30746  99.0574 165.5481 0046244 323.2829 195.5434 14.27508742974219"}}, "geometry": {"type": "Point", "coordinates": [-28.682323873112566, -57.81575631438291]}}, {"type": "Feature", "properties": {"norad_id": 30749, "name": "FENGYUN 1C DEB", "group": "fengyun-1c-debris", "lat": 5.062080276854159, "lon": 11.501882809586595, "alt_km": 921.8047901553482, "timestamp": "2025-12-11T10:53:16.165633+00:00", "meta": {"OBJECT_NAME": "FENGYUN 1C DEB", "OBJECT_ID": "1999-025ATK", "EPOCH": "2025-12-10T12:33:45.372384", "MEAN_MOTION": 13.9983641, "ECCENTRICITY": 0.0055246, "INCLINATION": 98.8877, "RA_OF_ASC_NODE": 11.3927, "ARG_OF_PERICENTER": 238.6464, "MEAN_ANOMALY": 120.9288, "EPHEMERIS_TYPE": 0, "CLASSIFICATION_TYPE": "U", "NORAD_CAT_ID": 30749, "ELEMENT_SET_NO": 999, "REV_AT_EPOCH": 95935, "BSTAR": 0.00017046, "MEAN_MOTION_DOT": 2.1e-06, "MEAN_MOTION_DDOT": 0}, "tle": {"line1": "1 30749U 99025ATK 25344.52344181  .00000210  00000+0  17046-3 0  9997", "line2": "2 30749  98.8877  11.3927 0055246 238.6464 120.9288 13.99836410959355"}}, "geometry": {"type": "Point", "coordinates": [11.501882809586595, 5.062080276854159]}}, {"type": "Feature", "properties": {"norad_id": 30750, "name": "FENGYUN 1C DEB", "group": "fengyun-1c-debris", "lat": 39.51906911427144, "lon": -112.58368861435346, "alt_km": 769.6391650942305, "timestamp": "2025-12-11T10:53:16.165644+00:00", "meta": {"OBJECT_NAME": "FENGYUN 1C DEB", "OBJECT_ID": "1999-025ATL", "EPOCH": "2025-12-10T23:18:25.803936", "MEAN_MOTION": 14.28577548, "ECCENTRICITY": 0.0040844, "INCLINATION": 98.9196, "RA_OF_ASC_NODE": 59.4798, "ARG_OF_PERICENTER": 105.194, "MEAN_ANOMALY": 74.1614, "EPHEMERIS_TYPE": 0, "CLASSIFICATION_TYPE": "U", "NORAD_CAT_ID": 30750, "ELEMENT_SET_NO": 999, "REV_AT_EPOCH": 96756, "BSTAR": 0.0027086, "MEAN_MOTION_DOT": 6.817e-05, "MEAN_MOTION_DDOT": 0}, "tle": {"line1": "1 30750U 99025ATL 25344.97113199  .00006817  00000+0  27086-2 0  9994", "line2": "2 30750  98.9196  59.4798 0040844 105.1940  74.1614 14.28577548967568"}}, "geometry": {"type": "Point", "coordinates": [-112.58368861435346, 39.51906911427144]}}, {"type": "Feature", "properties": {"norad_id": 30751, "name": "FENGYUN 1C DEB", "group": "fengyun-1c-debris", "lat": -64.53167113743929, "lon": 63.77062120704515, "alt_km": 885.6467493080318, "timestamp": "2025-12-11T10:53:16.165655+00:00", "meta": {"OBJECT_NAME": "FENGYUN 1C DEB", "OBJECT_ID": "1999-025ATM", "EPOCH": "2025-12-11T02:51:28.556064", "MEAN_MOTION": 14.15186526, "ECCENTRICITY": 0.0052504, "INCLINATION": 98.8551, "RA_OF_ASC_NODE": 44.3336, "ARG_OF_PERICENTER": 101.1278, "MEAN_ANOMALY": 289.4244, "EPHEMERIS_TYPE": 0, "CLASSIFICATION_TYPE": "U", "NORAD_CAT_ID": 30751, "ELEMENT_SET_NO": 999, "REV_AT_EPOCH": 96253, "BSTAR": 0.0020156, "MEAN_MOTION_DOT": 3.925e-05, "MEAN_MOTION_DDOT": 0}, "tle": {"line1": "1 30751U 99025ATM 25345.11908051  .00003925  00000+0  20156-2 0  9999", "line2": "2 30751  98.8551  44.3336 0052504 101.1278 289.4244 14.15186526962530"}}, "geometry": {"type": "Point", "coordinates": [63.77062120704515, -64.53167113743929]}}, {"type": "Feature", "properties": {"norad_id": 30753, "name": "FENGYUN 1C DEB", "group": "fengyun-1c-debris", "lat": 70.27701034951296, "lon": -130.30977692434925, "alt_km": 856.2270375253929, "timestamp": "2025-12-11T10:53:16.165665+00:00", "meta": {"OBJECT_NAME": "FENGYUN 1C DEB", "OBJECT_ID": "1999-025ATP", "EPOCH": "2025-12-10T20:47:00.804192", "MEAN_MOTION": 14.12633097, "ECCENTRICITY": 0.0055415, "INCLINATION": 98.8074, "RA_OF_ASC_NODE": 23.4888, "ARG_OF_PERICENTER": 0.5723, "MEAN_ANOMALY": 359.5503, "EPHEMERIS_TYPE": 0, "CLASSIFICATION_TYPE": "U", "NORAD_CAT_ID": 30753, "ELEMENT_SET_NO": 999, "REV_AT_EPOCH": 96325, "BSTAR": 0.001199, "MEAN_MOTION_DOT": 2.21e-05, "MEAN_MOTION_DDOT": 0}, "tle": {"line1": "1 30753U 99025ATP 25344.86598153  .00002210  00000+0  11990-2 0  9992", "line2": "2 30753  98.8074  23.4888 0055415   0.5723 359.5503 14.12633097963257"}}, "geometry": {"type": "Point", "coordinates": [-130.30977692434925, 70.27701034951296]}}, {"type": "Feature", "properties": {"norad_id": 30755, "name": "FENGYUN 1C DEB", "group": "fengyun-1c-debris", "lat": 76.65044488770879, "lon": -57.68477846702924, "alt_km": 839.34420738676, "timestamp": "2025-12-11T10:53:16.165676+00:00", "meta": {"OBJECT_NAME": "FENGYUN 1C DEB", "OBJECT_ID": "1999-025ATR", "EPOCH": "2025-12-10T23:01:44.292288", "MEAN_MOTION": 14.44938171, "ECCENTRICITY": 0.015089, "INCLINATION": 98.2586, "RA_OF_ASC_NODE": 339.5724, "ARG_OF_PERICENTER": 274.5631, "MEAN_ANOMALY": 115.7274, "EPHEMERIS_TYPE": 0, "CLASSIFICATION_TYPE": "U", "NORAD_CAT_ID": 30755, "ELEMENT_SET_NO": 999, "REV_AT_EPOCH": 98419, "BSTAR": 0.001032, "MEAN_MOTION_DOT": 4.087e-05, "MEAN_MOTION_DDOT": 0}, "tle": {"line1": "1 30755U 99025ATR 25344.95954042  .00004087  00000+0  10320-2 0  9997", "line2": "2 30755  98.2586 339.5724 0150890 274.5631 115.7274 14.44938171984194"}}, "geometry": {"type": "Point", "coordinates": [-57.68477846702924, 76.65044488770879]}}, {"type": "Feature", "properties": {"norad_id": 30756, "name": "FENGYUN 1C DEB", "group": "fengyun-1c-debris", "lat": 5.758109583676674, "lon": -126.24140141696729, "alt_km": 875.653566522119, "timestamp": "2025-12-11T10:53:16.165687+00:00", "meta": {"OBJECT_NAME": "FENGYUN 1C DEB", "OBJECT_ID": "1999-025ATS", "EPOCH": "2025-12-10T16:09:58.040352", "MEAN_MOTION": 14.18257027, "ECCENTRICITY": 0.007096, "INCLINATION": 98.991, "RA_OF_ASC_NODE": 52.0538, "ARG_OF_PERICENTER": 322.2694, "MEAN_ANOMALY": 191.6271, "EPHEMERIS_TYPE": 0, "CLASSIFICATION_TYPE": "U", "NORAD_CAT_ID": 30756, "ELEMENT_SET_NO": 999, "REV_AT_EPOCH": 96375, "BSTAR": 0.0019816, "MEAN_MOTION_DOT": 4.136e-05, "MEAN_MOTION_DDOT": 0}, "tle": {"line1": "1 30756U 99025ATS 25344.67358843  .00004136  00000+0  19816-2 0  9998", "line2": "2 30756  98.9910  52.0538 0070960 322.2694 191.6271 14.18257027963756"}}, "geometry": {"type": "Point", "coordinates": [-126.24140141696729, 5.758109583676674]}}]}